{
    "weatherclimate":[
        {
            "pincode":600001,
            "city": "Chennai",
            "tempature":"3534 °C °F",
            "percipitation":"8%",
            "humidity":"62%",
            "wind":"11 km/h"
        },
        {
            "pincode":600002,
            "city": "salem",
            "tempature":"3538 °C °F",
            "percipitation":"8%",
            "humidity":"62%",
            "wind":"10 km/h"
        },
        {
            "pincode":600003,
            "city": "madurai",
            "tempature":"3532 °C °F",
            "percipitation":"8%",
            "humidity":"54%",
            "wind":"10 km/h"
        },
        {
            "pincode":600004,
            "city": "kerala",
            "tempature":"3537 °C °F",
            "percipitation":"7%",
            "humidity":"84%",
            "wind":"12 km/h"
        },
        {
            "pincode":600005,
            "city": "banglore",
            "tempature":"3538 °C °F",
            "percipitation":"9%",
            "humidity":"91%",
            "wind":"12 km/h"
        },
        {
            "pincode":600006,
            "city": "mysore",
            "tempature":"3537 °C °F",
            "percipitation":"6%",
            "humidity":"80%",
            "wind":"10 km/h"
        },
        {
            "pincode":600007,
            "city": "tanjore",
            "tempature":"3539 °C °F",
            "percipitation":"8%",
            "humidity":"84%",
            "wind":"12 km/h"
        },
        {
            "pincode":600008,
            "city": "vellore",
            "tempature":"3532 °C °F",
            "percipitation":"8%",
            "humidity":"88%",
            "wind":"11 km/h"
        },
        {
            "pincode":600009,
            "city": "cuddalore",
            "tempature":"3536 °C °F",
            "percipitation":"9%",
            "humidity":"60%",
            "wind":"12 km/h"
        },
        {
            "pincode":600010,
            "city": "kaniya kumari",
            "tempature":"3533 °C °F",
            "percipitation":"7%",
            "humidity":"90%",
            "wind":"13 km/h"
        }
    ]
}